[{"OBJECT_NAME":"STARLINK-3456","OBJECT_ID":"2022-016AX","EPOCH":"2026-03-09T22:07:13.791360","MEAN_MOTION":15.08841542,"ECCENTRICITY":0.00015047,"INCLINATION":53.2182,"RA_OF_ASC_NODE":308.0846,"ARG_OF_PERICENTER":83.2398,"MEAN_ANOMALY":276.8765,"EPHEMERIS_TYPE":0,"CLASSIFICATION_TYPE":"U","NORAD_CAT_ID":51759,"ELEMENT_SET_NO":999,"REV_AT_EPOCH":22374,"BSTAR":1.3163329e-5,"MEAN_MOTION_DOT":-7.8e-7,"MEAN_MOTION_DDOT":0},{"OBJECT_NAME":"POSAT-2","OBJECT_ID":"2025-009DR","EPOCH":"2026-03-09T23:15:20.314368","MEAN_MOTION":15.10404492,"ECCENTRICITY":0.00077103,"INCLINATION":97.4906,"RA_OF_ASC_NODE":146.0095,"ARG_OF_PERICENTER":126.4226,"MEAN_ANOMALY":233.7715,"EPHEMERIS_TYPE":0,"CLASSIFICATION_TYPE":"U","NORAD_CAT_ID":63488,"ELEMENT_SET_NO":999,"REV_AT_EPOCH":5165,"BSTAR":0.0010942248,"MEAN_MOTION_DOT":0.00017957,"MEAN_MOTION_DDOT":0}]
